{
  "norad_id": 40749,
  "name": "BEIDOU-3S M1S",
  "history": [
    {
      "epoch": "2026-03-28T11:04:15.951936Z",
      "apogee_km": 21538.800436068457,
      "perigee_km": 21512.549645852803,
      "latitude_deg": 2.3993661699526558e-05,
      "longitude_deg": -47.114993032738994,
      "height_km": 21516.040409496683,
      "semi_major_axis_km": 27903.812040960627,
      "eccentricity": 0.00047038,
      "inclination_deg": 54.9387,
      "raan_deg": 304.8137,
      "arg_perigee_deg": 41.1359,
      "mean_anomaly_deg": 318.9389,
      "mean_motion_rev_day": 1.86254792
    },
    {
      "epoch": "2026-03-28T23:57:22.827168Z",
      "apogee_km": 21538.793314982497,
      "perigee_km": 21512.55257211158,
      "latitude_deg": 5.304861271430633e-05,
      "longitude_deg": 119.0592873992778,
      "height_km": 21516.150461352023,
      "semi_major_axis_km": 27903.809943547036,
      "eccentricity": 0.0004702,
      "inclination_deg": 54.9381,
      "raan_deg": 304.7952,
      "arg_perigee_deg": 41.8558,
      "mean_anomaly_deg": 318.2195,
      "mean_motion_rev_day": 1.86254813
    },
    {
      "epoch": "2026-04-01T05:16:02.849088Z",
      "apogee_km": 21538.747564278554,
      "perigee_km": 21512.57714893798,
      "latitude_deg": -1.7189822918697237e-05,
      "longitude_deg": 36.10598246248792,
      "height_km": 21516.294223100125,
      "semi_major_axis_km": 27903.799356608266,
      "eccentricity": 0.00046894,
      "inclination_deg": 54.9351,
      "raan_deg": 304.6841,
      "arg_perigee_deg": 42.6754,
      "mean_anomaly_deg": 317.3938,
      "mean_motion_rev_day": 1.86254919
    },
    {
      "epoch": "2026-04-02T19:55:22.603872Z",
      "apogee_km": 21538.7231598397,
      "perigee_km": 21512.595161266807,
      "latitude_deg": 1.3230748581657377e-05,
      "longitude_deg": 174.62805860685552,
      "height_km": 21516.387393712317,
      "semi_major_axis_km": 27903.796160553255,
      "eccentricity": 0.00046818,
      "inclination_deg": 54.9337,
      "raan_deg": 304.6286,
      "arg_perigee_deg": 43.1716,
      "mean_anomaly_deg": 316.8924,
      "mean_motion_rev_day": 1.86254951
    },
    {
      "epoch": "2026-04-03T21:41:35.825568Z",
      "apogee_km": 21538.753712626385,
      "perigee_km": 21512.563210206303,
      "latitude_deg": -5.926933600299971e-05,
      "longitude_deg": 146.97546356326404,
      "height_km": 21516.364761934536,
      "semi_major_axis_km": 27903.795461416343,
      "eccentricity": 0.0004693,
      "inclination_deg": 54.9325,
      "raan_deg": 304.5916,
      "arg_perigee_deg": 43.1589,
      "mean_anomaly_deg": 316.9018,
      "mean_motion_rev_day": 1.86254958
    }
  ]
}